start=new Date('2022-08-21T00:00:00.000Z').valueOf();
sats=[{"ECCENTRICITY":"0.00016030","PERIAPSIS":"546.130","TLE_LINE2":"2 47389  53.0559 103.4226 0001603  75.3653 284.7513 15.06391368 87857","BSTAR":"-0.00003909200000","INCLINATION":"53.0559","TIME_SYSTEM":"UTC","GP_ID":"210619247","OBJECT_NAME":"STARLINK-2110","FILE":"3541760","DECAY_DATE":null,"MEAN_MOTION_DOT":"-0.00000864","MEAN_ELEMENT_THEORY":"SGP4","PERIOD":"95.593","EPOCH":"2022-08-20T20:04:08.700384","ARG_OF_PERICENTER":"75.3653","LAUNCH_DATE":"2021-01-20","TLE_LINE1":"1 47389U 21005AS  22232.83621181 -.00000864  00000-0 -39092-4 0  9997","ELEMENT_SET_NO":"999","APOAPSIS":"548.350","SITE":"AFETR","MEAN_MOTION_DDOT":"0.0000000000000","REV_AT_EPOCH":"8785","CENTER_NAME":"EARTH","MEAN_ANOMALY":"284.7513","COUNTRY_CODE":"US","RA_OF_ASC_NODE":"103.4226","CLASSIFICATION_TYPE":"U","MEAN_MOTION":"15.06391368","OBJECT_ID":"2021-005AS","SEMIMAJOR_AXIS":"6925.375","RCS_SIZE":"LARGE","OBJECT_TYPE":"PAYLOAD","NORAD_CAT_ID":"47389","REF_FRAME":"TEME","EPHEMERIS_TYPE":"0"},{"INCLINATION":"53.0550","TLE_LINE2":"2 47390  53.0550 123.1489 0001415  79.8476 280.2673 15.06389434 87582","BSTAR":"-0.00010860000000","PERIAPSIS":"546.266","ECCENTRICITY":"0.00014150","SITE":"AFETR","APOAPSIS":"548.226","TLE_LINE1":"1 47390U 21005AT  22232.89798160 -.00001898  00000-0 -10860-3 0  9996","ELEMENT_SET_NO":"999","PERIOD":"95.593","EPOCH":"2022-08-20T21:33:05.610240","ARG_OF_PERICENTER":"79.8476","LAUNCH_DATE":"2021-01-20","FILE":"3541760","DECAY_DATE":null,"MEAN_ELEMENT_THEORY":"SGP4","MEAN_MOTION_DOT":"-0.00001898","OBJECT_NAME":"STARLINK-2111","GP_ID":"210619995","TIME_SYSTEM":"UTC","COUNTRY_CODE":"US","RA_OF_ASC_NODE":"123.1489","CLASSIFICATION_TYPE":"U","CENTER_NAME":"EARTH","MEAN_ANOMALY":"280.2673","REV_AT_EPOCH":"8758","MEAN_MOTION_DDOT":"0.0000000000000","REF_FRAME":"TEME","EPHEMERIS_TYPE":"0","OBJECT_TYPE":"PAYLOAD","NORAD_CAT_ID":"47390","RCS_SIZE":"LARGE","SEMIMAJOR_AXIS":"6925.381","OBJECT_ID":"2021-005AT","MEAN_MOTION":"15.06389434"},{"OBJECT_NAME":"STARLINK-2112","GP_ID":"210620221","TIME_SYSTEM":"UTC","MEAN_MOTION_DOT":"-0.00001051","MEAN_ELEMENT_THEORY":"SGP4","DECAY_DATE":null,"FILE":"3541760","ELEMENT_SET_NO":"999","TLE_LINE1":"1 47391U 21005AU  22232.90716778 -.00001051  00000-0 -51658-4 0  9996","LAUNCH_DATE":"2021-01-20","ARG_OF_PERICENTER":"76.5681","PERIOD":"95.593","EPOCH":"2022-08-20T21:46:19.296192","SITE":"AFETR","APOAPSIS":"548.234","ECCENTRICITY":"0.00014450","PERIAPSIS":"546.232","BSTAR":"-0.00005165800000","TLE_LINE2":"2 47391  53.0543  93.1083 0001445  76.5681 283.5469 15.06393634 88000","INCLINATION":"53.0543","MEAN_MOTION":"15.06393634","SEMIMAJOR_AXIS":"6925.368","OBJECT_ID":"2021-005AU","NORAD_CAT_ID":"47391","OBJECT_TYPE":"PAYLOAD","RCS_SIZE":"LARGE","EPHEMERIS_TYPE":"0","REF_FRAME":"TEME","MEAN_MOTION_DDOT":"0.0000000000000","MEAN_ANOMALY":"283.5469","CENTER_NAME":"EARTH","REV_AT_EPOCH":"8800","CLASSIFICATION_TYPE":"U","COUNTRY_CODE":"US","RA_OF_ASC_NODE":"93.1083"},{"GP_ID":"210618997","TIME_SYSTEM":"UTC","OBJECT_NAME":"STARLINK-2113","MEAN_MOTION_DOT":"-0.00000743","MEAN_ELEMENT_THEORY":"SGP4","FILE":"3541760","DECAY_DATE":null,"LAUNCH_DATE":"2021-01-20","ARG_OF_PERICENTER":"72.5279","PERIOD":"95.593","EPOCH":"2022-08-20T20:12:08.628192","ELEMENT_SET_NO":"999","TLE_LINE1":"1 47392U 21005AV  22232.84176653 -.00000743  00000-0 -30990-4 0  9995","APOAPSIS":"548.024","SITE":"AFETR","ECCENTRICITY":"0.00011120","PERIAPSIS":"546.484","BSTAR":"-0.00003099000000","TLE_LINE2":"2 47392  53.0547  93.4032 0001112  72.5279 287.5831 15.06386722 87996","INCLINATION":"53.0547","MEAN_MOTION":"15.06386722","OBJECT_ID":"2021-005AV","SEMIMAJOR_AXIS":"6925.389","RCS_SIZE":"LARGE","NORAD_CAT_ID":"47392","OBJECT_TYPE":"PAYLOAD","EPHEMERIS_TYPE":"0","REF_FRAME":"TEME","MEAN_MOTION_DDOT":"0.0000000000000","REV_AT_EPOCH":"8799","MEAN_ANOMALY":"287.5831","CENTER_NAME":"EARTH","CLASSIFICATION_TYPE":"U","COUNTRY_CODE":"US","RA_OF_ASC_NODE":"93.4032"},{"APOAPSIS":"548.128","SITE":"AFETR","ARG_OF_PERICENTER":"89.2049","PERIOD":"95.593","EPOCH":"2022-08-20T20:50:01.671360","LAUNCH_DATE":"2021-01-20","TLE_LINE1":"1 47393U 21005AW  22232.86807490 -.00000543  00000-0 -17545-4 0  9997","ELEMENT_SET_NO":"999","DECAY_DATE":null,"FILE":"3541760","MEAN_MOTION_DOT":"-0.00000543","MEAN_ELEMENT_THEORY":"SGP4","TIME_SYSTEM":"UTC","GP_ID":"210618748","OBJECT_NAME":"STARLINK-2114","INCLINATION":"53.0547","TLE_LINE2":"2 47393  53.0547  68.6208 0001293  89.2049 270.9088 15.06393833 88347","BSTAR":"-0.00001754500000","PERIAPSIS":"546.337","ECCENTRICITY":"0.00012930","REF_FRAME":"TEME","EPHEMERIS_TYPE":"0","RCS_SIZE":"LARGE","OBJECT_TYPE":"PAYLOAD","NORAD_CAT_ID":"47393","OBJECT_ID":"2021-005AW","SEMIMAJOR_AXIS":"6925.367","MEAN_MOTION":"15.06393833","RA_OF_ASC_NODE":"68.6208","COUNTRY_CODE":"US","CLASSIFICATION_TYPE":"U","REV_AT_EPOCH":"8834","CENTER_NAME":"EARTH","MEAN_ANOMALY":"270.9088","MEAN_MOTION_DDOT":"0.0000000000000"},{"PERIAPSIS":"546.311","ECCENTRICITY":"0.00013750","INCLINATION":"53.0539","TLE_LINE2":"2 47394  53.0539  88.4485 0001375  77.6716 282.4427 15.06383724 88072","BSTAR":"-0.00014190000000","DECAY_DATE":null,"FILE":"3541760","MEAN_MOTION_DOT":"-0.00002393","MEAN_ELEMENT_THEORY":"SGP4","OBJECT_NAME":"STARLINK-2115","TIME_SYSTEM":"UTC","GP_ID":"210619496","SITE":"AFETR","APOAPSIS":"548.216","TLE_LINE1":"1 47394U 21005AX  22232.86620665 -.00002393  00000-0 -14190-3 0  9992","ELEMENT_SET_NO":"999","ARG_OF_PERICENTER":"77.6716","PERIOD":"95.593","EPOCH":"2022-08-20T20:47:20.254560","LAUNCH_DATE":"2021-01-20","CENTER_NAME":"EARTH","MEAN_ANOMALY":"282.4427","REV_AT_EPOCH":"8807","MEAN_MOTION_DDOT":"0.0000000000000","RA_OF_ASC_NODE":"88.4485","COUNTRY_CODE":"US","CLASSIFICATION_TYPE":"U","SEMIMAJOR_AXIS":"6925.398","OBJECT_ID":"2021-005AX","MEAN_MOTION":"15.06383724","REF_FRAME":"TEME","EPHEMERIS_TYPE":"0","OBJECT_TYPE":"PAYLOAD","NORAD_CAT_ID":"47394","RCS_SIZE":"LARGE"},{"INCLINATION":"53.0542","TLE_LINE2":"2 47395  53.0542  83.1971 0001396  72.9226 287.1916 15.06387484 88146","BSTAR":"-0.00016639000000","PERIAPSIS":"546.285","ECCENTRICITY":"0.00013960","SITE":"AFETR","APOAPSIS":"548.219","TLE_LINE1":"1 47395U 21005AY  22232.88692215 -.00002758  00000-0 -16639-3 0  9990","ELEMENT_SET_NO":"999","PERIOD":"95.593","EPOCH":"2022-08-20T21:17:10.073760","ARG_OF_PERICENTER":"72.9226","LAUNCH_DATE":"2021-01-20","FILE":"3541760","DECAY_DATE":null,"MEAN_ELEMENT_THEORY":"SGP4","MEAN_MOTION_DOT":"-0.00002758","OBJECT_NAME":"STARLINK-2117","TIME_SYSTEM":"UTC","GP_ID":"210619722","RA_OF_ASC_NODE":"83.1971","COUNTRY_CODE":"US","CLASSIFICATION_TYPE":"U","CENTER_NAME":"EARTH","MEAN_ANOMALY":"287.1916","REV_AT_EPOCH":"8814","MEAN_MOTION_DDOT":"0.0000000000000","REF_FRAME":"TEME","EPHEMERIS_TYPE":"0","OBJECT_TYPE":"PAYLOAD","NORAD_CAT_ID":"47395","RCS_SIZE":"LARGE","SEMIMAJOR_AXIS":"6925.387","OBJECT_ID":"2021-005AY","MEAN_MOTION":"15.06387484"},{"MEAN_MOTION":"15.06377857","OBJECT_ID":"2021-005AZ","SEMIMAJOR_AXIS":"6925.416","RCS_SIZE":"LARGE","OBJECT_TYPE":"PAYLOAD","NORAD_CAT_ID":"47396","REF_FRAME":"TEME","EPHEMERIS_TYPE":"0","MEAN_MOTION_DDOT":"0.0000000000000","REV_AT_EPOCH":"8800","CENTER_NAME":"EARTH","MEAN_ANOMALY":"272.2014","COUNTRY_CODE":"US","RA_OF_ASC_NODE":"93.2980","CLASSIFICATION_TYPE":"U","TIME_SYSTEM":"UTC","GP_ID":"210618498","OBJECT_NAME":"STARLINK-2118","DECAY_DATE":null,"FILE":"3541760","MEAN_MOTION_DOT":"0.00002521","MEAN_ELEMENT_THEORY":"SGP4","ARG_OF_PERICENTER":"87.9149","PERIOD":"95.594","EPOCH":"2022-08-20T20:43:59.942208","LAUNCH_DATE":"2021-01-20","TLE_LINE1":"1 47396U 21005AZ  22232.86388822  .00002521  00000-0  18816-3 0  9990","ELEMENT_SET_NO":"999","APOAPSIS":"548.335","SITE":"AFETR","ECCENTRICITY":"0.00015220","PERIAPSIS":"546.227","BSTAR":"0.00018816000000","TLE_LINE2":"2 47396  53.0537  93.2980 0001522  87.9149 272.2014 15.06377857 88006","INCLINATION":"53.0537"},{"MEAN_MOTION_DOT":"-0.00003006","MEAN_ELEMENT_THEORY":"SGP4","FILE":"3541760","DECAY_DATE":null,"OBJECT_NAME":"STARLINK-2119","TIME_SYSTEM":"UTC","GP_ID":"210619248","SITE":"AFETR","APOAPSIS":"548.251","ELEMENT_SET_NO":"999","TLE_LINE1":"1 47397U 21005BA  22232.86111476 -.00003006  00000-0 -18307-3 0  9996","LAUNCH_DATE":"2021-01-20","PERIOD":"95.593","EPOCH":"2022-08-20T20:40:00.315264","ARG_OF_PERICENTER":"71.7029","PERIAPSIS":"546.251","ECCENTRICITY":"0.00014440","INCLINATION":"53.0533","TLE_LINE2":"2 47397  53.0533 123.3009 0001444  71.7029 288.4117 15.06387683 87584","BSTAR":"-0.00018307000000","SEMIMAJOR_AXIS":"6925.386","OBJECT_ID":"2021-005BA","MEAN_MOTION":"15.06387683","EPHEMERIS_TYPE":"0","REF_FRAME":"TEME","NORAD_CAT_ID":"47397","OBJECT_TYPE":"PAYLOAD","RCS_SIZE":"LARGE","MEAN_ANOMALY":"288.4117","CENTER_NAME":"EARTH","REV_AT_EPOCH":"8758","MEAN_MOTION_DDOT":"0.0000000000000","CLASSIFICATION_TYPE":"U","COUNTRY_CODE":"US","RA_OF_ASC_NODE":"123.3009"},{"MEAN_MOTION_DDOT":"0.0000000000000","REV_AT_EPOCH":"8800","MEAN_ANOMALY":"280.1806","CENTER_NAME":"EARTH","CLASSIFICATION_TYPE":"U","RA_OF_ASC_NODE":"93.1421","COUNTRY_CODE":"US","MEAN_MOTION":"15.06395069","OBJECT_ID":"2021-005BB","SEMIMAJOR_AXIS":"6925.364","RCS_SIZE":"LARGE","NORAD_CAT_ID":"47398","OBJECT_TYPE":"PAYLOAD","EPHEMERIS_TYPE":"0","REF_FRAME":"TEME","ECCENTRICITY":"0.00014850","PERIAPSIS":"546.200","TLE_LINE2":"2 47398  53.0552  93.1421 0001485  79.9350 280.1806 15.06395069 88009","BSTAR":"-0.00008470400000","INCLINATION":"53.0552","GP_ID":"210619996","TIME_SYSTEM":"UTC","OBJECT_NAME":"STARLINK-2120","MEAN_MOTION_DOT":"-0.00001543","MEAN_ELEMENT_THEORY":"SGP4","FILE":"3541760","DECAY_DATE":null,"LAUNCH_DATE":"2021-01-20","EPOCH":"2022-08-20T21:37:03.932544","PERIOD":"95.592","ARG_OF_PERICENTER":"79.9350","ELEMENT_SET_NO":"999","TLE_LINE1":"1 47398U 21005BB  22232.90073996 -.00001543  00000-0 -84704-4 0  9995","APOAPSIS":"548.257","SITE":"AFETR"}];
